{"type": "FeatureCollection", "features": [ {"type": "Feature", "properties": {"norad_id": 66777, "name": "TRANSPORTER-15 DR", "group": "last-30-days", "lat": 33.21171888619286, "lon": 63.360291816430816, "alt_km": 506.70659773993157, "timestamp": "2025-12-22T14:45:56.097504+00:00", "meta": {"OBJECT_NAME": "TRANSPORTER-15 DR", "OBJECT_ID": "2025-276DR", "EPOCH": "2025-12-22T03:33:02.735712", "MEAN_MOTION": 15.18897919, "ECCENTRICITY": 0.0003442, "INCLINATION": 97.4472, "RA_OF_ASC_NODE": 67.8124, "ARG_OF_PERICENTER": 114.2073, "MEAN_ANOMALY": 245.9522, "EPHEMERIS_TYPE": 0, "CLASSIFICATION_TYPE": "U", "NORAD_CAT_ID": 66777, "ELEMENT_SET_NO": 999, "REV_AT_EPOCH": 355, "BSTAR": 0.00070515309, "MEAN_MOTION_DOT": 0.00014664, "MEAN_MOTION_DDOT": 0}, "tle": {"line1": "1 66777U 25276DR  25356.14794833  .00014664  00000+0  70515-3 0  9996", "line2": "2 66777  97.4472  67.8124 0003442 114.2073 245.9522 15.18897919  3557"}}, "geometry": {"type": "Point", "coordinates": [63.360291816430816, 33.21171888619286]}}, {"type": "Feature", "properties": {"norad_id": 66791, "name": "STARLINK-35867", "group": "last-30-days", "lat": -5.233097952513099, "lon": 18.121563000402737, "alt_km": 407.76247459930164, "timestamp": "2025-12-22T14:45:56.097517+00:00", "meta": {"OBJECT_NAME": "STARLINK-35867", "OBJECT_ID": "2025-278A", "EPOCH": "2025-12-22T06:00:02.000160", "MEAN_MOTION": 15.54776231, "ECCENTRICITY": 0.00014494, "INCLINATION": 42.999, "RA_OF_ASC_NODE": 194.6283, "ARG_OF_PERICENTER": 258.933, "MEAN_ANOMALY": 43.1661, "EPHEMERIS_TYPE": 0, "CLASSIFICATION_TYPE": "U", "NORAD_CAT_ID": 66791, "ELEMENT_SET_NO": 999, "REV_AT_EPOCH": 448, "BSTAR": -0.033778988, "MEAN_MOTION_DOT": -0.02056614, "MEAN_MOTION_DDOT": 0}, "tle": {"line1": "1 66791U 25278A   25356.25002315 -.02056614  00000+0 -33779-1 0  9997", "line2": "2 66791  42.9990 194.6283 0001449 258.9330  43.1661 15.54776231  4483"}}, "geometry": {"type": "Point", "coordinates": [18.121563000402737, -5.233097952513099]}}, {"type": "Feature", "properties": {"norad_id": 66792, "name": "STARLINK-35990", "group": "last-30-days", "lat": -6.5316683979090575, "lon": 19.534233561413533, "alt_km": 407.90697342129715, "timestamp": "2025-12-22T14:45:56.097529+00:00", "meta": {"OBJECT_NAME": "STARLINK-35990", "OBJECT_ID": "2025-278B", "EPOCH": "2025-12-22T06:00:02.000160", "MEAN_MOTION": 15.54780056, "ECCENTRICITY": 0.00015127, "INCLINATION": 42.9995, "RA_OF_ASC_NODE": 194.6239, "ARG_OF_PERICENTER": 260.445, "MEAN_ANOMALY": 43.5709, "EPHEMERIS_TYPE": 0, "CLASSIFICATION_TYPE": "U", "NORAD_CAT_ID": 66792, "ELEMENT_SET_NO": 999, "REV_AT_EPOCH": 448, "BSTAR": -0.03391142, "MEAN_MOTION_DOT": -0.02064104, "MEAN_MOTION_DDOT": 0}, "tle": {"line1": "1 66792U 25278B   25356.25002315 -.02064104  00000+0 -33911-1 0  9999", "line2": "2 66792  42.9995 194.6239 0001512 260.4450  43.5709 15.54780056  4489"}}, "geometry": {"type": "Point", "coordinates": [19.534233561413533, -6.5316683979090575]}}, {"type": "Feature", "properties": {"norad_id": 66793, "name": "STARLINK-36051", "group": "last-30-days", "lat": -9.116266517636602, "lon": 22.382682529160732, "alt_km": 408.02961857945047, "timestamp": "2025-12-22T14:45:56.097541+00:00", "meta": {"OBJECT_NAME": "STARLINK-36051", "OBJECT_ID": "2025-278C", "EPOCH": "2025-12-22T06:00:02.000160", "MEAN_MOTION": 15.5477813, "ECCENTRICITY": 0.00014994, "INCLINATION": 42.9995, "RA_OF_ASC_NODE": 194.6142, "ARG_OF_PERICENTER": 255.9486, "MEAN_ANOMALY": 51.901, "EPHEMERIS_TYPE": 0, "CLASSIFICATION_TYPE": "U", "NORAD_CAT_ID": 66793, "ELEMENT_SET_NO": 999, "REV_AT_EPOCH": 438, "BSTAR": -0.033853517, "MEAN_MOTION_DOT": -0.02060822, "MEAN_MOTION_DDOT": 0}, "tle": {"line1": "1 66793U 25278C   25356.25002315 -.02060822  00000+0 -33854-1 0  9999", "line2": "2 66793  42.9995 194.6142 0001499 255.9486  51.9010 15.54778130  4382"}}, "geometry": {"type": "Point", "coordinates": [22.382682529160732, -9.116266517636602]}}, {"type": "Feature", "properties": {"norad_id": 66794, "name": "STARLINK-36062", "group": "last-30-days", "lat": -7.830110415642259, "lon": 20.957629733104305, "alt_km": 407.96288506548626, "timestamp": "2025-12-22T14:45:56.097551+00:00", "meta": {"OBJECT_NAME": "STARLINK-36062", "OBJECT_ID": "2025-278D", "EPOCH": "2025-12-22T06:00:02.000160", "MEAN_MOTION": 15.54672183, "ECCENTRICITY": 0.00019531, "INCLINATION": 42.9995, "RA_OF_ASC_NODE": 194.6183, "ARG_OF_PERICENTER": 258.515, "MEAN_ANOMALY": 47.5199, "EPHEMERIS_TYPE": 0, "CLASSIFICATION_TYPE": "U", "NORAD_CAT_ID": 66794, "ELEMENT_SET_NO": 999, "REV_AT_EPOCH": 448, "BSTAR": -0.032446717, "MEAN_MOTION_DOT": -0.01977398, "MEAN_MOTION_DDOT": 0}, "tle": {"line1": "1 66794U 25278D   25356.25002315 -.01977398  00000+0 -32447-1 0  9991", "line2": "2 66794  42.9995 194.6183 0001953 258.5150  47.5199 15.54672183  4481"}}, "geometry": {"type": "Point", "coordinates": [20.957629733104305, -7.830110415642259]}}, {"type": "Feature", "properties": {"norad_id": 66795, "name": "STARLINK-36047", "group": "last-30-days", "lat": -10.39926146076894, "lon": 23.82071661003483, "alt_km": 408.16716704905866, "timestamp": "2025-12-22T14:45:56.097561+00:00", "meta": {"OBJECT_NAME": "STARLINK-36047", "OBJECT_ID": "2025-278E", "EPOCH": "2025-12-22T06:00:02.000160", "MEAN_MOTION": 15.54778723, "ECCENTRICITY": 0.00016159, "INCLINATION": 42.9993, "RA_OF_ASC_NODE": 194.6097, "ARG_OF_PERICENTER": 259.2343, "MEAN_ANOMALY": 50.531, "EPHEMERIS_TYPE": 0, "CLASSIFICATION_TYPE": "U", "NORAD_CAT_ID": 66795, "ELEMENT_SET_NO": 999, "REV_AT_EPOCH": 438, "BSTAR": -0.033836735, "MEAN_MOTION_DOT": -0.02060027, "MEAN_MOTION_DDOT": 0}, "tle": {"line1": "1 66795U 25278E   25356.25002315 -.02060027  00000+0 -33837-1 0  9999", "line2": "2 66795  42.9993 194.6097 0001615 259.2343  50.5310 15.54778723  4386"}}, "geometry": {"type": "Point", "coordinates": [23.82071661003483, -10.39926146076894]}}, {"type": "Feature", "properties": {"norad_id": 66796, "name": "STARLINK-35964", "group": "last-30-days", "lat": -42.80235888414801, "lon": 94.26249561819898, "alt_km": 329.2124419190659, "timestamp": "2025-12-22T14:45:56.097571+00:00", "meta": {"OBJECT_NAME": "STARLINK-35964", "OBJECT_ID": "2025-278F", "EPOCH": "2025-12-21T22:29:14.049888", "MEAN_MOTION": 15.80940684, "ECCENTRICITY": 0.00016446, "INCLINATION": 42.9913, "RA_OF_ASC_NODE": 194.6227, "ARG_OF_PERICENTER": 259.6877, "MEAN_ANOMALY": 100.3809, "EPHEMERIS_TYPE": 0, "CLASSIFICATION_TYPE": "U", "NORAD_CAT_ID": 66796, "ELEMENT_SET_NO": 999, "REV_AT_EPOCH": 330, "BSTAR": 0.0010754929, "MEAN_MOTION_DOT": 0.00220482, "MEAN_MOTION_DDOT": 0}, "tle": {"line1": "1 66796U 25278F   25355.93696817  .00220482  00000+0  10755-2 0  9994", "line2": "2 66796  42.9913 194.6227 0001644 259.6877 100.3809 15.80940684  3306"}}, "geometry": {"type": "Point", "coordinates": [94.26249561819898, -42.80235888414801]}}, {"type": "Feature", "properties": {"norad_id": 66797, "name": "STARLINK-36099", "group": "last-30-days", "lat": -12.946520043890542, "lon": 26.73511671234626, "alt_km": 408.40226285283825, "timestamp": "2025-12-22T14:45:56.097583+00:00", "meta": {"OBJECT_NAME": "STARLINK-36099", "OBJECT_ID": "2025-278G", "EPOCH": "2025-12-22T06:00:02.000160", "MEAN_MOTION": 15.54774898, "ECCENTRICITY": 0.00016875, "INCLINATION": 42.9994, "RA_OF_ASC_NODE": 194.6001, "ARG_OF_PERICENTER": 262.0275, "MEAN_ANOMALY": 51.5752, "EPHEMERIS_TYPE": 0, "CLASSIFICATION_TYPE": "U", "NORAD_CAT_ID": 66797, "ELEMENT_SET_NO": 999, "REV_AT_EPOCH": 454, "BSTAR": -0.033779372, "MEAN_MOTION_DOT": -0.02056698, "MEAN_MOTION_DDOT": 0}, "tle": {"line1": "1 66797U 25278G   25356.25002315 -.02056698  00000+0 -33779-1 0  9995", "line2": "2 66797  42.9994 194.6001 0001687 262.0275  51.5752 15.54774898  4547"}}, "geometry": {"type": "Point", "coordinates": [26.73511671234626, -12.946520043890542]}}, {"type": "Feature", "properties": {"norad_id": 66798, "name": "STARLINK-36041", "group": "last-30-days", "lat": -14.210820835224597, "lon": 28.216815340976144, "alt_km": 408.531065465907, "timestamp": "2025-12-22T14:45:56.097595+00:00", "meta": {"OBJECT_NAME": "STARLINK-36041", "OBJECT_ID": "2025-278H", "EPOCH": "2025-12-22T06:00:02.000160", "MEAN_MOTION": 15.54778037, "ECCENTRICITY": 0.0001477, "INCLINATION": 42.9992, "RA_OF_ASC_NODE": 194.5948, "ARG_OF_PERICENTER": 260.914, "MEAN_ANOMALY": 54.6047, "EPHEMERIS_TYPE": 0, "CLASSIFICATION_TYPE": "U", "NORAD_CAT_ID": 66798, "ELEMENT_SET_NO": 999, "REV_AT_EPOCH": 432, "BSTAR": -0.033830743, "MEAN_MOTION_DOT": -0.02059565, "MEAN_MOTION_DDOT": 0}, "tle": {"line1": "1 66798U 25278H   25356.25002315 -.02059565  00000+0 -33831-1 0  9991", "line2": "2 66798  42.9992 194.5948 0001477 260.9140  54.6047 15.54778037  4326"}}, "geometry": {"type": "Point", "coordinates": [28.216815340976144, -14.210820835224597]}}, {"type": "Feature", "properties": {"norad_id": 66799, "name": "STARLINK-36044", "group": "last-30-days", "lat": -15.4635055220363, "lon": 29.713239519189262, "alt_km": 408.51692953677866, "timestamp": "2025-12-22T14:45:56.097608+00:00", "meta": {"OBJECT_NAME": "STARLINK-36044", "OBJECT_ID": "2025-278J", "EPOCH": "2025-12-22T06:00:02.000160", "MEAN_MOTION": 15.54779312, "ECCENTRICITY": 0.000154, "INCLINATION": 42.9994, "RA_OF_ASC_NODE": 194.5906, "ARG_OF_PERICENTER": 256.5754, "MEAN_ANOMALY": 60.861, "EPHEMERIS_TYPE": 0, "CLASSIFICATION_TYPE": "U", "NORAD_CAT_ID": 66799, "ELEMENT_SET_NO": 999, "REV_AT_EPOCH": 448, "BSTAR": -0.033907006, "MEAN_MOTION_DOT": -0.02063832, "MEAN_MOTION_DDOT": 0}, "tle": {"line1": "1 66799U 25278J   25356.25002315 -.02063832  00000+0 -33907-1 0  9998", "line2": "2 66799  42.9994 194.5906 0001540 256.5754  60.8610 15.54779312  4485"}}, "geometry": {"type": "Point", "coordinates": [29.713239519189262, -15.4635055220363]}}]}